start=new Date('2023-06-08T00:00:00.000Z').valueOf();
sats=[{"RA_OF_ASC_NODE":"352.1030","ELEMENT_SET_NO":"999","PERIOD":"95.591","CENTER_NAME":"EARTH","COUNTRY_CODE":"US","TLE_LINE1":"1 46541U 20070K   23158.82963107  .00011111  00000-0  76324-3 0  9994","NORAD_CAT_ID":"46541","OBJECT_NAME":"STARLINK-1687","CLASSIFICATION_TYPE":"U","TLE_LINE2":"2 46541  53.0539 352.1030 0001043  82.1809 277.9298 15.06419538148174","SEMIMAJOR_AXIS":"6925.289","MEAN_MOTION_DDOT":"0.0000000000000","ARG_OF_PERICENTER":"82.1809","LAUNCH_DATE":"2020-10-06","REF_FRAME":"TEME","TIME_SYSTEM":"UTC","SITE":"AFETR","OBJECT_TYPE":"PAYLOAD","EPHEMERIS_TYPE":"0","MEAN_ELEMENT_THEORY":"SGP4","OBJECT_ID":"2020-070K","DECAY_DATE":null,"APOAPSIS":"547.876","MEAN_MOTION_DOT":"0.00011111","MEAN_MOTION":"15.06419538","FILE":"3927436","RCS_SIZE":"LARGE","MEAN_ANOMALY":"277.9298","PERIAPSIS":"546.431","INCLINATION":"53.0539","REV_AT_EPOCH":"14817","BSTAR":"0.00076324000000","EPOCH":"2023-06-07T19:54:40.124448","ECCENTRICITY":"0.00010430","GP_ID":"233429553"},{"CENTER_NAME":"EARTH","RA_OF_ASC_NODE":"11.7912","PERIOD":"95.591","ELEMENT_SET_NO":"999","TIME_SYSTEM":"UTC","SITE":"AFETR","OBJECT_TYPE":"PAYLOAD","EPHEMERIS_TYPE":"0","REF_FRAME":"TEME","OBJECT_NAME":"STARLINK-1692","NORAD_CAT_ID":"46542","TLE_LINE2":"2 46542  53.0547  11.7912 0000617  89.4286 270.6774 15.06422261147902","MEAN_MOTION_DDOT":"0.0000000000000","SEMIMAJOR_AXIS":"6925.280","CLASSIFICATION_TYPE":"U","LAUNCH_DATE":"2020-10-06","ARG_OF_PERICENTER":"89.4286","COUNTRY_CODE":"US","TLE_LINE1":"1 46542U 20070L   23158.89781682  .00021263  00000-0  14412-2 0  9996","MEAN_MOTION":"15.06422261","RCS_SIZE":"LARGE","FILE":"3927436","APOAPSIS":"547.573","MEAN_MOTION_DOT":"0.00021263","DECAY_DATE":null,"MEAN_ELEMENT_THEORY":"SGP4","OBJECT_ID":"2020-070L","ECCENTRICITY":"0.00006170","GP_ID":"233429304","EPOCH":"2023-06-07T21:32:51.373248","BSTAR":"0.00144120000000","INCLINATION":"53.0547","PERIAPSIS":"546.718","MEAN_ANOMALY":"270.6774","REV_AT_EPOCH":"14790"},{"EPOCH":"2023-06-07T21:11:37.870080","ECCENTRICITY":"0.00012010","GP_ID":"233428552","PERIAPSIS":"546.336","INCLINATION":"53.0545","MEAN_ANOMALY":"266.1897","REV_AT_EPOCH":"14790","BSTAR":"0.00113760000000","APOAPSIS":"547.999","MEAN_MOTION_DOT":"0.00016710","MEAN_MOTION":"15.06415068","FILE":"3927436","RCS_SIZE":"LARGE","MEAN_ELEMENT_THEORY":"SGP4","OBJECT_ID":"2020-070M","DECAY_DATE":null,"REF_FRAME":"TEME","SITE":"AFETR","TIME_SYSTEM":"UTC","OBJECT_TYPE":"PAYLOAD","EPHEMERIS_TYPE":"0","COUNTRY_CODE":"US","TLE_LINE1":"1 46543U 20070M   23158.88307720  .00016710  00000-0  11376-2 0  9990","NORAD_CAT_ID":"46543","OBJECT_NAME":"STARLINK-1693","SEMIMAJOR_AXIS":"6925.302","TLE_LINE2":"2 46543  53.0545  11.8577 0001201  93.9229 266.1897 15.06415068147909","MEAN_MOTION_DDOT":"0.0000000000000","CLASSIFICATION_TYPE":"U","ARG_OF_PERICENTER":"93.9229","LAUNCH_DATE":"2020-10-06","RA_OF_ASC_NODE":"11.8577","ELEMENT_SET_NO":"999","PERIOD":"95.591","CENTER_NAME":"EARTH"},{"ELEMENT_SET_NO":"999","PERIOD":"95.591","RA_OF_ASC_NODE":"357.1742","CENTER_NAME":"EARTH","COUNTRY_CODE":"US","TLE_LINE1":"1 46544U 20070N   23158.81258427  .00014388  00000-0  98241-3 0  9999","OBJECT_NAME":"STARLINK-1694","NORAD_CAT_ID":"46544","ARG_OF_PERICENTER":"80.9724","LAUNCH_DATE":"2020-10-06","TLE_LINE2":"2 46544  53.0542 357.1742 0001168  80.9724 279.1397 15.06415941148107","SEMIMAJOR_AXIS":"6925.300","MEAN_MOTION_DDOT":"0.0000000000000","CLASSIFICATION_TYPE":"U","REF_FRAME":"TEME","TIME_SYSTEM":"UTC","SITE":"AFETR","OBJECT_TYPE":"PAYLOAD","EPHEMERIS_TYPE":"0","MEAN_ELEMENT_THEORY":"SGP4","OBJECT_ID":"2020-070N","DECAY_DATE":null,"MEAN_MOTION_DOT":"0.00014388","APOAPSIS":"547.974","MEAN_MOTION":"15.06415941","RCS_SIZE":"LARGE","FILE":"3927436","REV_AT_EPOCH":"14810","PERIAPSIS":"546.356","MEAN_ANOMALY":"279.1397","INCLINATION":"53.0542","BSTAR":"0.00098241000000","EPOCH":"2023-06-07T19:30:07.280928","ECCENTRICITY":"0.00011680","GP_ID":"233428302"},{"OBJECT_TYPE":"PAYLOAD","EPHEMERIS_TYPE":"0","SITE":"AFETR","TIME_SYSTEM":"UTC","REF_FRAME":"TEME","TLE_LINE2":"2 46545  53.0537  11.9962 0001059 108.4775 251.6329 15.06408132147891","SEMIMAJOR_AXIS":"6925.324","MEAN_MOTION_DDOT":"0.0000000000000","CLASSIFICATION_TYPE":"U","LAUNCH_DATE":"2020-10-06","ARG_OF_PERICENTER":"108.4775","OBJECT_NAME":"STARLINK-1696","NORAD_CAT_ID":"46545","TLE_LINE1":"1 46545U 20070P   23158.85358801  .00015173  00000-0  10351-2 0  9999","COUNTRY_CODE":"US","CENTER_NAME":"EARTH","RA_OF_ASC_NODE":"11.9962","ELEMENT_SET_NO":"999","PERIOD":"95.592","GP_ID":"233429054","ECCENTRICITY":"0.00010590","EPOCH":"2023-06-07T20:29:10.004064","BSTAR":"0.00103510000000","MEAN_ANOMALY":"251.6329","PERIAPSIS":"546.455","INCLINATION":"53.0537","REV_AT_EPOCH":"14789","RCS_SIZE":"LARGE","FILE":"3927436","MEAN_MOTION":"15.06408132","APOAPSIS":"547.922","MEAN_MOTION_DOT":"0.00015173","DECAY_DATE":null,"OBJECT_ID":"2020-070P","MEAN_ELEMENT_THEORY":"SGP4"},{"CENTER_NAME":"EARTH","RA_OF_ASC_NODE":"11.7564","ELEMENT_SET_NO":"999","PERIOD":"95.591","OBJECT_NAME":"STARLINK-1697","NORAD_CAT_ID":"46546","CLASSIFICATION_TYPE":"U","TLE_LINE2":"2 46546  53.0548  11.7564 0001258  89.1446 270.9687 15.06415636147901","SEMIMAJOR_AXIS":"6925.301","MEAN_MOTION_DDOT":"0.0000000000000","ARG_OF_PERICENTER":"89.1446","LAUNCH_DATE":"2020-10-06","COUNTRY_CODE":"US","TLE_LINE1":"1 46546U 20070Q   23158.90519728  .00017319  00000-0  11782-2 0  9996","TIME_SYSTEM":"UTC","SITE":"AFETR","OBJECT_TYPE":"PAYLOAD","EPHEMERIS_TYPE":"0","REF_FRAME":"TEME","DECAY_DATE":null,"MEAN_ELEMENT_THEORY":"SGP4","OBJECT_ID":"2020-070Q","MEAN_MOTION":"15.06415636","FILE":"3927436","RCS_SIZE":"LARGE","APOAPSIS":"548.037","MEAN_MOTION_DOT":"0.00017319","BSTAR":"0.00117820000000","INCLINATION":"53.0548","PERIAPSIS":"546.294","MEAN_ANOMALY":"270.9687","REV_AT_EPOCH":"14790","ECCENTRICITY":"0.00012580","GP_ID":"233429804","EPOCH":"2023-06-07T21:43:29.044992"},{"DECAY_DATE":null,"OBJECT_ID":"2020-070R","MEAN_ELEMENT_THEORY":"SGP4","FILE":"3927436","RCS_SIZE":"LARGE","MEAN_MOTION":"15.06424256","MEAN_MOTION_DOT":"0.00016322","APOAPSIS":"547.961","BSTAR":"0.00111140000000","REV_AT_EPOCH":"14790","PERIAPSIS":"546.317","INCLINATION":"53.0556","MEAN_ANOMALY":"269.3682","GP_ID":"233428053","ECCENTRICITY":"0.00011870","EPOCH":"2023-06-07T20:49:02.140896","CENTER_NAME":"EARTH","ELEMENT_SET_NO":"999","PERIOD":"95.591","RA_OF_ASC_NODE":"11.9177","LAUNCH_DATE":"2020-10-06","ARG_OF_PERICENTER":"90.7443","TLE_LINE2":"2 46547  53.0556  11.9177 0001187  90.7443 269.3682 15.06424256147904","MEAN_MOTION_DDOT":"0.0000000000000","SEMIMAJOR_AXIS":"6925.274","CLASSIFICATION_TYPE":"U","OBJECT_NAME":"STARLINK-1698","NORAD_CAT_ID":"46547","TLE_LINE1":"1 46547U 20070R   23158.86738589  .00016322  00000-0  11114-2 0  9992","COUNTRY_CODE":"US","OBJECT_TYPE":"PAYLOAD","EPHEMERIS_TYPE":"0","TIME_SYSTEM":"UTC","SITE":"AFETR","REF_FRAME":"TEME"},{"EPOCH":"2023-06-07T21:06:19.304640","GP_ID":"233428802","ECCENTRICITY":"0.00009720","PERIAPSIS":"546.454","INCLINATION":"53.0559","MEAN_ANOMALY":"262.2744","REV_AT_EPOCH":"14790","BSTAR":"0.00147690000000","APOAPSIS":"547.800","MEAN_MOTION_DOT":"0.00021802","RCS_SIZE":"LARGE","FILE":"3927436","MEAN_MOTION":"15.06428124","OBJECT_ID":"2020-070S","MEAN_ELEMENT_THEORY":"SGP4","DECAY_DATE":null,"REF_FRAME":"TEME","EPHEMERIS_TYPE":"0","OBJECT_TYPE":"PAYLOAD","TIME_SYSTEM":"UTC","SITE":"AFETR","TLE_LINE1":"1 46548U 20070S   23158.87939010  .00021802  00000-0  14769-2 0  9994","COUNTRY_CODE":"US","SEMIMAJOR_AXIS":"6925.262","TLE_LINE2":"2 46548  53.0559  11.8737 0000972  97.8356 262.2744 15.06428124147900","CLASSIFICATION_TYPE":"U","MEAN_MOTION_DDOT":"0.0000000000000","ARG_OF_PERICENTER":"97.8356","LAUNCH_DATE":"2020-10-06","OBJECT_NAME":"STARLINK-1699","NORAD_CAT_ID":"46548","RA_OF_ASC_NODE":"11.8737","PERIOD":"95.590","ELEMENT_SET_NO":"999","CENTER_NAME":"EARTH"},{"SITE":"AFETR","TIME_SYSTEM":"UTC","EPHEMERIS_TYPE":"0","OBJECT_TYPE":"PAYLOAD","REF_FRAME":"TEME","OBJECT_NAME":"STARLINK-1700","NORAD_CAT_ID":"46549","TLE_LINE2":"2 46549  53.0545  11.7395 0001430  91.3098 268.8055 15.06422537147906","SEMIMAJOR_AXIS":"6925.279","MEAN_MOTION_DDOT":"0.0000000000000","CLASSIFICATION_TYPE":"U","LAUNCH_DATE":"2020-10-06","ARG_OF_PERICENTER":"91.3098","COUNTRY_CODE":"US","TLE_LINE1":"1 46549U 20070T   23158.90887995  .00018631  00000-0  12656-2 0  9992","CENTER_NAME":"EARTH","RA_OF_ASC_NODE":"11.7395","PERIOD":"95.591","ELEMENT_SET_NO":"999","ECCENTRICITY":"0.00014300","GP_ID":"233429554","EPOCH":"2023-06-07T21:48:47.227680","BSTAR":"0.00126560000000","INCLINATION":"53.0545","PERIAPSIS":"546.154","MEAN_ANOMALY":"268.8055","REV_AT_EPOCH":"14790","MEAN_MOTION":"15.06422537","FILE":"3927436","RCS_SIZE":"LARGE","APOAPSIS":"548.135","MEAN_MOTION_DOT":"0.00018631","DECAY_DATE":null,"MEAN_ELEMENT_THEORY":"SGP4","OBJECT_ID":"2020-070T"},{"OBJECT_TYPE":"PAYLOAD","EPHEMERIS_TYPE":"0","TIME_SYSTEM":"UTC","SITE":"AFETR","REF_FRAME":"TEME","SEMIMAJOR_AXIS":"6925.288","TLE_LINE2":"2 46550  53.0547  11.8120 0000870  92.5235 267.5854 15.06419901147904","CLASSIFICATION_TYPE":"U","MEAN_MOTION_DDOT":"0.0000000000000","LAUNCH_DATE":"2020-10-06","ARG_OF_PERICENTER":"92.5235","NORAD_CAT_ID":"46550","OBJECT_NAME":"STARLINK-1701","TLE_LINE1":"1 46550U 20070U   23158.89413135  .00015460  00000-0  10539-2 0  9998","COUNTRY_CODE":"US","CENTER_NAME":"EARTH","RA_OF_ASC_NODE":"11.8120","PERIOD":"95.591","ELEMENT_SET_NO":"999","GP_ID":"233429305","ECCENTRICITY":"0.00008700","EPOCH":"2023-06-07T21:27:32.948640","BSTAR":"0.00105390000000","INCLINATION":"53.0547","PERIAPSIS":"546.550","MEAN_ANOMALY":"267.5854","REV_AT_EPOCH":"14790","FILE":"3927436","RCS_SIZE":"LARGE","MEAN_MOTION":"15.06419901","APOAPSIS":"547.755","MEAN_MOTION_DOT":"0.00015460","DECAY_DATE":null,"OBJECT_ID":"2020-070U","MEAN_ELEMENT_THEORY":"SGP4"}];
